{"type": "FeatureCollection", "features": [ {"type": "Feature", "properties": {"norad_id": 39634, "name": "SENTINEL-1A", "group": "resource", "lat": -56.12140959706673, "lon": 13.84246550441469, "alt_km": 703.5141639393742, "timestamp": "2025-12-22T08:58:20.000316+00:00", "meta": {"OBJECT_NAME": "SENTINEL-1A", "OBJECT_ID": "2014-016A", "EPOCH": "2025-12-22T04:17:45.422880", "MEAN_MOTION": 14.5920081, "ECCENTRICITY": 0.0001267, "INCLINATION": 98.1795, "RA_OF_ASC_NODE": 1.2809, "ARG_OF_PERICENTER": 85.25, "MEAN_ANOMALY": 274.8844, "EPHEMERIS_TYPE": 0, "CLASSIFICATION_TYPE": "U", "NORAD_CAT_ID": 39634, "ELEMENT_SET_NO": 999, "REV_AT_EPOCH": 62420, "BSTAR": 4.9193e-06, "MEAN_MOTION_DOT": -2.3e-07, "MEAN_MOTION_DDOT": 0}, "tle": {"line1": "1 39634U 14016A   25356.17899795 -.00000023  00000+0  49193-5 0  9999", "line2": "2 39634  98.1795   1.2809 0001267  85.2500 274.8844 14.59200810624203"}}, "geometry": {"type": "Point", "coordinates": [13.84246550441469, -56.12140959706673]}}, {"type": "Feature", "properties": {"norad_id": 39731, "name": "KAZEOSAT 1", "group": "resource", "lat": 43.55396094846399, "lon": 60.045097609180395, "alt_km": 747.5043083679457, "timestamp": "2025-12-22T08:58:20.000327+00:00", "meta": {"OBJECT_NAME": "KAZEOSAT 1", "OBJECT_ID": "2014-024A", "EPOCH": "2025-12-22T03:46:21.006912", "MEAN_MOTION": 14.42066901, "ECCENTRICITY": 0.0001202, "INCLINATION": 98.3429, "RA_OF_ASC_NODE": 67.8533, "ARG_OF_PERICENTER": 98.3033, "MEAN_ANOMALY": 261.8293, "EPHEMERIS_TYPE": 0, "CLASSIFICATION_TYPE": "U", "NORAD_CAT_ID": 39731, "ELEMENT_SET_NO": 999, "REV_AT_EPOCH": 61304, "BSTAR": 1.9896e-05, "MEAN_MOTION_DOT": 2.2e-07, "MEAN_MOTION_DDOT": 0}, "tle": {"line1": "1 39731U 14024A   25356.15718758  .00000022  00000+0  19896-4 0  9997", "line2": "2 39731  98.3429  67.8533 0001202  98.3033 261.8293 14.42066901613041"}}, "geometry": {"type": "Point", "coordinates": [60.045097609180395, 43.55396094846399]}}, {"type": "Feature", "properties": {"norad_id": 39766, "name": "ALOS-2", "group": "resource", "lat": 36.027088775629046, "lon": -83.10391156054001, "alt_km": 627.7909765495087, "timestamp": "2025-12-22T08:58:20.000337+00:00", "meta": {"OBJECT_NAME": "ALOS-2", "OBJECT_ID": "2014-029A", "EPOCH": "2025-12-22T05:04:46.553952", "MEAN_MOTION": 14.79476112, "ECCENTRICITY": 0.0001372, "INCLINATION": 97.9229, "RA_OF_ASC_NODE": 90.9233, "ARG_OF_PERICENTER": 102.4141, "MEAN_ANOMALY": 257.7224, "EPHEMERIS_TYPE": 0, "CLASSIFICATION_TYPE": "U", "NORAD_CAT_ID": 39766, "ELEMENT_SET_NO": 999, "REV_AT_EPOCH": 62541, "BSTAR": 0.00037245, "MEAN_MOTION_DOT": 2.731e-05, "MEAN_MOTION_DDOT": 0}, "tle": {"line1": "1 39766U 14029A   25356.21164993  .00002731  00000+0  37245-3 0  9999", "line2": "2 39766  97.9229  90.9233 0001372 102.4141 257.7224 14.79476112625412"}}, "geometry": {"type": "Point", "coordinates": [-83.10391156054001, 36.027088775629046]}}, {"type": "Feature", "properties": {"norad_id": 40010, "name": "KAZEOSAT 2", "group": "resource", "lat": -69.68870287578558, "lon": -0.8053850517587059, "alt_km": 619.0506888090013, "timestamp": "2025-12-22T08:58:20.000347+00:00", "meta": {"OBJECT_NAME": "KAZEOSAT 2", "OBJECT_ID": "2014-033A", "EPOCH": "2025-12-22T04:36:42.206688", "MEAN_MOTION": 14.85181449, "ECCENTRICITY": 0.0008481, "INCLINATION": 97.5494, "RA_OF_ASC_NODE": 200.0182, "ARG_OF_PERICENTER": 173.8387, "MEAN_ANOMALY": 186.2934, "EPHEMERIS_TYPE": 0, "CLASSIFICATION_TYPE": "U", "NORAD_CAT_ID": 40010, "ELEMENT_SET_NO": 999, "REV_AT_EPOCH": 62268, "BSTAR": 8.4315e-05, "MEAN_MOTION_DOT": 6.72e-06, "MEAN_MOTION_DDOT": 0}, "tle": {"line1": "1 40010U 14033A   25356.19215517  .00000672  00000+0  84315-4 0  9997", "line2": "2 40010  97.5494 200.0182 0008481 173.8387 186.2934 14.85181449622688"}}, "geometry": {"type": "Point", "coordinates": [-0.8053850517587059, -69.68870287578558]}}, {"type": "Feature", "properties": {"norad_id": 40011, "name": "HODOYOSHI-4", "group": "resource", "lat": 58.041140099038635, "lon": 172.5233737918968, "alt_km": 605.5919967632135, "timestamp": "2025-12-22T08:58:20.000358+00:00", "meta": {"OBJECT_NAME": "HODOYOSHI-4", "OBJECT_ID": "2014-033B", "EPOCH": "2025-12-22T03:51:51.765120", "MEAN_MOTION": 14.87514134, "ECCENTRICITY": 0.0023912, "INCLINATION": 97.5407, "RA_OF_ASC_NODE": 184.5799, "ARG_OF_PERICENTER": 168.8237, "MEAN_ANOMALY": 191.3516, "EPHEMERIS_TYPE": 0, "CLASSIFICATION_TYPE": "U", "NORAD_CAT_ID": 40011, "ELEMENT_SET_NO": 999, "REV_AT_EPOCH": 62248, "BSTAR": 0.00020782, "MEAN_MOTION_DOT": 1.842e-05, "MEAN_MOTION_DDOT": 0}, "tle": {"line1": "1 40011U 14033B   25356.16101580  .00001842  00000+0  20782-3 0  9996", "line2": "2 40011  97.5407 184.5799 0023912 168.8237 191.3516 14.87514134622481"}}, "geometry": {"type": "Point", "coordinates": [172.5233737918968, 58.041140099038635]}}, {"type": "Feature", "properties": {"norad_id": 40013, "name": "DEIMOS-2", "group": "resource", "lat": 46.121477669799106, "lon": -136.13215736594077, "alt_km": 583.9439417066524, "timestamp": "2025-12-22T08:58:20.000368+00:00", "meta": {"OBJECT_NAME": "DEIMOS-2", "OBJECT_ID": "2014-033D", "EPOCH": "2025-12-22T05:32:49.248384", "MEAN_MOTION": 14.93013034, "ECCENTRICITY": 0.0001511, "INCLINATION": 97.6066, "RA_OF_ASC_NODE": 231.7183, "ARG_OF_PERICENTER": 101.3302, "MEAN_ANOMALY": 258.8087, "EPHEMERIS_TYPE": 0, "CLASSIFICATION_TYPE": "U", "NORAD_CAT_ID": 40013, "ELEMENT_SET_NO": 999, "REV_AT_EPOCH": 61131, "BSTAR": 0.00017894, "MEAN_MOTION_DOT": 1.806e-05, "MEAN_MOTION_DDOT": 0}, "tle": {"line1": "1 40013U 14033D   25356.23112556  .00001806  00000+0  17894-3 0  9991", "line2": "2 40013  97.6066 231.7183 0001511 101.3302 258.8087 14.93013034611315"}}, "geometry": {"type": "Point", "coordinates": [-136.13215736594077, 46.121477669799106]}}, {"type": "Feature", "properties": {"norad_id": 40015, "name": "HODOYOSHI-3", "group": "resource", "lat": -70.68537649637494, "lon": -40.66747698356643, "alt_km": 603.3090912741382, "timestamp": "2025-12-22T08:58:20.000378+00:00", "meta": {"OBJECT_NAME": "HODOYOSHI-3", "OBJECT_ID": "2014-033F", "EPOCH": "2025-12-21T17:17:01.918176", "MEAN_MOTION": 14.84834616, "ECCENTRICITY": 0.0032313, "INCLINATION": 97.6205, "RA_OF_ASC_NODE": 161.1649, "ARG_OF_PERICENTER": 217.3776, "MEAN_ANOMALY": 142.5191, "EPHEMERIS_TYPE": 0, "CLASSIFICATION_TYPE": "U", "NORAD_CAT_ID": 40015, "ELEMENT_SET_NO": 999, "REV_AT_EPOCH": 62128, "BSTAR": 0.00015648, "MEAN_MOTION_DOT": 1.289e-05, "MEAN_MOTION_DDOT": 0}, "tle": {"line1": "1 40015U 14033F   25355.72016109  .00001289  00000+0  15648-3 0  9993", "line2": "2 40015  97.6205 161.1649 0032313 217.3776 142.5191 14.84834616621281"}}, "geometry": {"type": "Point", "coordinates": [-40.66747698356643, -70.68537649637494]}}, {"type": "Feature", "properties": {"norad_id": 40053, "name": "SPOT 7", "group": "resource", "lat": -40.5857511834955, "lon": -128.77118636429407, "alt_km": 698.1139932305086, "timestamp": "2025-12-22T08:58:20.000388+00:00", "meta": {"OBJECT_NAME": "SPOT 7", "OBJECT_ID": "2014-034A", "EPOCH": "2025-12-22T04:40:32.885184", "MEAN_MOTION": 14.60743955, "ECCENTRICITY": 0.0001545, "INCLINATION": 98.0897, "RA_OF_ASC_NODE": 58.0526, "ARG_OF_PERICENTER": 84.498, "MEAN_ANOMALY": 275.6397, "EPHEMERIS_TYPE": 0, "CLASSIFICATION_TYPE": "U", "NORAD_CAT_ID": 40053, "ELEMENT_SET_NO": 999, "REV_AT_EPOCH": 61129, "BSTAR": 5.5188e-05, "MEAN_MOTION_DOT": 2.24e-06, "MEAN_MOTION_DDOT": 0}, "tle": {"line1": "1 40053U 14034A   25356.19482506  .00000224  00000+0  55188-4 0  9998", "line2": "2 40053  98.0897  58.0526 0001545  84.4980 275.6397 14.60743955611291"}}, "geometry": {"type": "Point", "coordinates": [-128.77118636429407, -40.5857511834955]}}, {"type": "Feature", "properties": {"norad_id": 40072, "name": "SKYSAT-B", "group": "resource", "lat": -2.5455404602643372, "lon": -59.03612383944495, "alt_km": 612.2361085039192, "timestamp": "2025-12-22T08:58:20.000398+00:00", "meta": {"OBJECT_NAME": "SKYSAT-B", "OBJECT_ID": "2014-037D", "EPOCH": "2025-12-21T18:27:09.237888", "MEAN_MOTION": 14.87356718, "ECCENTRICITY": 0.0006704, "INCLINATION": 98.3624, "RA_OF_ASC_NODE": 299.9522, "ARG_OF_PERICENTER": 124.7394, "MEAN_ANOMALY": 235.4453, "EPHEMERIS_TYPE": 0, "CLASSIFICATION_TYPE": "U", "NORAD_CAT_ID": 40072, "ELEMENT_SET_NO": 999, "REV_AT_EPOCH": 61958, "BSTAR": 0.00015196, "MEAN_MOTION_DOT": 1.312e-05, "MEAN_MOTION_DDOT": 0}, "tle": {"line1": "1 40072U 14037D   25355.76885692  .00001312  00000+0  15196-3 0  9990", "line2": "2 40072  98.3624 299.9522 0006704 124.7394 235.4453 14.87356718619587"}}, "geometry": {"type": "Point", "coordinates": [-59.03612383944495, -2.5455404602643372]}}, {"type": "Feature", "properties": {"norad_id": 40115, "name": "WORLDVIEW-3 (WV-3)", "group": "resource", "lat": 8.801739846070161, "lon": -110.23594150303211, "alt_km": 615.4020892470162, "timestamp": "2025-12-22T08:58:20.000408+00:00", "meta": {"OBJECT_NAME": "WORLDVIEW-3 (WV-3)", "OBJECT_ID": "2014-048A", "EPOCH": "2025-12-22T03:21:07.425792", "MEAN_MOTION": 14.84668384, "ECCENTRICITY": 0.0001876, "INCLINATION": 97.8768, "RA_OF_ASC_NODE": 68.3044, "ARG_OF_PERICENTER": 133.7182, "MEAN_ANOMALY": 226.4188, "EPHEMERIS_TYPE": 0, "CLASSIFICATION_TYPE": "U", "NORAD_CAT_ID": 40115, "ELEMENT_SET_NO": 999, "REV_AT_EPOCH": 61563, "BSTAR": 0.00012164, "MEAN_MOTION_DOT": 9.76e-06, "MEAN_MOTION_DDOT": 0}, "tle": {"line1": "1 40115U 14048A   25356.13966928  .00000976  00000+0  12164-3 0  9991", "line2": "2 40115  97.8768  68.3044 0001876 133.7182 226.4188 14.84668384615634"}}, "geometry": {"type": "Point", "coordinates": [-110.23594150303211, 8.801739846070161]}}]}